[{"OBJECT_NAME":"FLOCK 4G-21","OBJECT_ID":"2025-009AU","EPOCH":"2026-03-09T04:40:37.351200","MEAN_MOTION":15.28381075,"ECCENTRICITY":4.655e-5,"INCLINATION":97.4032,"RA_OF_ASC_NODE":151.1274,"ARG_OF_PERICENTER":329.5782,"MEAN_ANOMALY":30.5431,"EPHEMERIS_TYPE":0,"CLASSIFICATION_TYPE":"U","NORAD_CAT_ID":62651,"ELEMENT_SET_NO":999,"REV_AT_EPOCH":6367,"BSTAR":0.00049618643,"MEAN_MOTION_DOT":0.00013648,"MEAN_MOTION_DDOT":0},{"OBJECT_NAME":"STARLINK-35761","OBJECT_ID":"2025-288C","EPOCH":"2026-03-09T05:51:01.985472","MEAN_MOTION":15.27587608,"ECCENTRICITY":0.00011159,"INCLINATION":43.0012,"RA_OF_ASC_NODE":25.5874,"ARG_OF_PERICENTER":282.5954,"MEAN_ANOMALY":77.4773,"EPHEMERIS_TYPE":0,"CLASSIFICATION_TYPE":"U","NORAD_CAT_ID":66961,"ELEMENT_SET_NO":999,"REV_AT_EPOCH":1522,"BSTAR":0.0014731485,"MEAN_MOTION_DOT":0.00040508,"MEAN_MOTION_DDOT":0}]
